ONEWEB-0102             
1 47258U 20100A   26011.31412215  .00000457  00000+0  12361-2 0  9998
2 47258  87.8921  21.8343 0001584  83.6308 276.5001 13.12443400244159
ONEWEB-0109             
1 47259U 20100B   26011.32258792  .00000447  00000+0  12082-2 0  9997
2 47259  87.8926  21.8032 0001628  92.1144 268.0172 13.12442800243980
ONEWEB-0110             
1 47260U 20100C   26011.27345584 -.00000329  00000+0 -95013-3 0  9996
2 47260  87.8926  21.7972 0001642  81.4598 278.6717 13.12442416244148
ONEWEB-0111             
1 47261U 20100D   26011.30394632  .00000051  00000+0  10682-3 0  9998
2 47261  87.8929  21.8095 0001809  86.1945 273.9390 13.12445146243981
ONEWEB-0114             
1 47262U 20100E   26011.25820850  .00000125  00000+0  31085-3 0  9991
2 47262  87.8930  21.8137 0001642 102.6470 257.4842 13.12442150243939
ONEWEB-0117             
1 47263U 20100F   26011.24974424  .00000380  00000+0  10214-2 0  9991
2 47263  87.8926  21.8114 0001728  89.2244 270.9083 13.12442008243944
ONEWEB-0118             
1 47264U 20100G   26011.28363013 -.00000402  00000+0 -11518-2 0  9997
2 47264  87.8929  21.8054 0001901 100.8960 259.2382 13.12443354244149
ONEWEB-0119             
1 47265U 20100H   26011.30904714  .00000319  00000+0  85045-3 0  9992
2 47265  87.8919  21.8315 0001717  90.5130 269.6195 13.12445422244121
